GAOFEN-3                
1 41727U 16049A   25112.16627926  .00000171  00000+0  65220-4 0  9998
2 41727  98.4053 121.2540 0001167  68.0170 292.1143 14.42143368457952
SKYSAT-C4               
1 41771U 16058B   25112.05497938  .00019567  00000+0  56931-3 0  9990
2 41771  96.9626 149.4680 0002292  53.4246 306.7210 15.35458009480596
SKYSAT-C5               
1 41772U 16058C   25112.10390073  .00019003  00000+0  53976-3 0  9990
2 41772  97.1064 164.3596 0008233 204.3203 155.7655 15.36191748479148
SKYSAT-C2               
1 41773U 16058D   25112.07172113  .00015756  00000+0  51564-3 0  9992
2 41773  97.0462 147.1240 0005972 119.9849 240.1987 15.31745848480385
SKYSAT-C3               
1 41774U 16058E   25111.72443819  .00018336  00000+0  51436-3 0  9993
2 41774  96.9595 157.3996 0002379  75.2337 284.9172 15.36615314481096
ALSAT 1B                
1 41785U 16059C   25112.13776071  .00000887  00000+0  14951-3 0  9994
2 41785  97.7925 133.8892 0010484 133.4748 226.7333 14.71773077458633
PATHFINDER 1            
1 41787U 16059E   25111.48313024  .00001593  00000+0  29168-3 0  9999
2 41787  97.8159 125.1939 0030369 109.4526 250.9965 14.66819887457871
SCATSAT 1               
1 41790U 16059H   25111.60390512  .00002931  00000+0  40293-3 0  9993
2 41790  98.1740 165.0376 0056816 163.2418 197.0687 14.78016280454593
GOKTURK 1A              
1 41875U 16073A   25112.21979358  .00000914  00000+0  18844-3 0  9998
2 41875  98.1189   8.0564 0001437  84.2564 275.8802 14.62752108447283
RESOURCESAT-2A          
1 41877U 16074A   25112.18574715  .00000291  00000+0  15195-3 0  9999
2 41877  98.6075 184.8338 0001863 130.3392 229.7949 14.21680532434496
CARTOSAT-2D             
1 41948U 17008A   25112.15648799  .00009181  00000+0  43751-3 0  9993
2 41948  97.4660 172.7247 0004505 251.2481 108.8265 15.19330338453656
SENTINEL-2B             
1 42063U 17013A   25112.15857597  .00000283  00000+0  12443-3 0  9994
2 42063  98.5649 187.9842 0001310  96.0939 264.0394 14.30823374424449
ZHUHAI-1 02 (CAS-4B)    
1 42759U 17034B   25111.81586468  .00091271  00000+0  12173-2 0  9993
2 42759  43.0082 251.1882 0019903 308.6830  51.2252 15.56867331434983
NUSAT-3 (MILANESAT)     
1 42760U 17034C   25112.18659814  .00193505  00000+0  13087-2 0  9990
2 42760  42.9955 216.9270 0022857 349.8490  10.1915 15.73334827435421
