[
  {
    "OBJECT_NAME": "GAOFEN-3",
    "OBJECT_ID": "2016-049A",
    "EPOCH": "2025-04-22T03:59:26.528064",
    "MEAN_MOTION": 14.42143368,
    "ECCENTRICITY": 0.0001167,
    "INCLINATION": 98.4053,
    "RA_OF_ASC_NODE": 121.254,
    "ARG_OF_PERICENTER": 68.017,
    "MEAN_ANOMALY": 292.1143,
    "EPHEMERIS_TYPE": 0,
    "CLASSIFICATION_TYPE": "U",
    "NORAD_CAT_ID": 41727,
    "ELEMENT_SET_NO": 999,
    "REV_AT_EPOCH": 45795,
    "BSTAR": 0.00006522,
    "MEAN_MOTION_DOT": 0.00000171,
    "MEAN_MOTION_DDOT": 0
  },
  {
    "OBJECT_NAME": "SKYSAT-C4",
    "OBJECT_ID": "2016-058B",
    "EPOCH": "2025-04-22T01:19:10.218432",
    "MEAN_MOTION": 15.35458009,
    "ECCENTRICITY": 0.0002292,
    "INCLINATION": 96.9626,
    "RA_OF_ASC_NODE": 149.468,
    "ARG_OF_PERICENTER": 53.4246,
    "MEAN_ANOMALY": 306.721,
    "EPHEMERIS_TYPE": 0,
    "CLASSIFICATION_TYPE": "U",
    "NORAD_CAT_ID": 41771,
    "ELEMENT_SET_NO": 999,
    "REV_AT_EPOCH": 48059,
    "BSTAR": 0.00056931,
    "MEAN_MOTION_DOT": 0.00019567,
    "MEAN_MOTION_DDOT": 0
  },
  {
    "OBJECT_NAME": "SKYSAT-C5",
    "OBJECT_ID": "2016-058C",
    "EPOCH": "2025-04-22T02:29:37.023072",
    "MEAN_MOTION": 15.36191748,
    "ECCENTRICITY": 0.0008233,
    "INCLINATION": 97.1064,
    "RA_OF_ASC_NODE": 164.3596,
    "ARG_OF_PERICENTER": 204.3203,
    "MEAN_ANOMALY": 155.7655,
    "EPHEMERIS_TYPE": 0,
    "CLASSIFICATION_TYPE": "U",
    "NORAD_CAT_ID": 41772,
    "ELEMENT_SET_NO": 999,
    "REV_AT_EPOCH": 47914,
    "BSTAR": 0.00053976,
    "MEAN_MOTION_DOT": 0.00019003,
    "MEAN_MOTION_DDOT": 0
  },
  {
    "OBJECT_NAME": "SKYSAT-C2",
    "OBJECT_ID": "2016-058D",
    "EPOCH": "2025-04-22T01:43:16.705632",
    "MEAN_MOTION": 15.31745848,
    "ECCENTRICITY": 0.0005972,
    "INCLINATION": 97.0462,
    "RA_OF_ASC_NODE": 147.124,
    "ARG_OF_PERICENTER": 119.9849,
    "MEAN_ANOMALY": 240.1987,
    "EPHEMERIS_TYPE": 0,
    "CLASSIFICATION_TYPE": "U",
    "NORAD_CAT_ID": 41773,
    "ELEMENT_SET_NO": 999,
    "REV_AT_EPOCH": 48038,
    "BSTAR": 0.00051564,
    "MEAN_MOTION_DOT": 0.00015756,
    "MEAN_MOTION_DDOT": 0
  },
  {
    "OBJECT_NAME": "SKYSAT-C3",
    "OBJECT_ID": "2016-058E",
    "EPOCH": "2025-04-21T17:23:11.459616",
    "MEAN_MOTION": 15.36615314,
    "ECCENTRICITY": 0.0002379,
    "INCLINATION": 96.9595,
    "RA_OF_ASC_NODE": 157.3996,
    "ARG_OF_PERICENTER": 75.2337,
    "MEAN_ANOMALY": 284.9172,
    "EPHEMERIS_TYPE": 0,
    "CLASSIFICATION_TYPE": "U",
    "NORAD_CAT_ID": 41774,
    "ELEMENT_SET_NO": 999,
    "REV_AT_EPOCH": 48109,
    "BSTAR": 0.00051436,
    "MEAN_MOTION_DOT": 0.00018336,
    "MEAN_MOTION_DDOT": 0
  },
  {
    "OBJECT_NAME": "ALSAT 1B",
    "OBJECT_ID": "2016-059C",
    "EPOCH": "2025-04-22T03:18:22.525344",
    "MEAN_MOTION": 14.71773077,
    "ECCENTRICITY": 0.0010484,
    "INCLINATION": 97.7925,
    "RA_OF_ASC_NODE": 133.8892,
    "ARG_OF_PERICENTER": 133.4748,
    "MEAN_ANOMALY": 226.7333,
    "EPHEMERIS_TYPE": 0,
    "CLASSIFICATION_TYPE": "U",
    "NORAD_CAT_ID": 41785,
    "ELEMENT_SET_NO": 999,
    "REV_AT_EPOCH": 45863,
    "BSTAR": 0.00014951,
    "MEAN_MOTION_DOT": 0.00000887,
    "MEAN_MOTION_DDOT": 0
  },
  {
    "OBJECT_NAME": "PATHFINDER 1",
    "OBJECT_ID": "2016-059E",
    "EPOCH": "2025-04-21T11:35:42.452736",
    "MEAN_MOTION": 14.66819887,
    "ECCENTRICITY": 0.0030369,
    "INCLINATION": 97.8159,
    "RA_OF_ASC_NODE": 125.1939,
    "ARG_OF_PERICENTER": 109.4526,
    "MEAN_ANOMALY": 250.9965,
    "EPHEMERIS_TYPE": 0,
    "CLASSIFICATION_TYPE": "U",
    "NORAD_CAT_ID": 41787,
    "ELEMENT_SET_NO": 999,
    "REV_AT_EPOCH": 45787,
    "BSTAR": 0.00029168,
    "MEAN_MOTION_DOT": 0.00001593,
    "MEAN_MOTION_DDOT": 0
  },
  {
    "OBJECT_NAME": "SCATSAT 1",
    "OBJECT_ID": "2016-059H",
    "EPOCH": "2025-04-21T14:29:37.402368",
    "MEAN_MOTION": 14.7801628,
    "ECCENTRICITY": 0.0056816,
    "INCLINATION": 98.174,
    "RA_OF_ASC_NODE": 165.0376,
    "ARG_OF_PERICENTER": 163.2418,
    "MEAN_ANOMALY": 197.0687,
    "EPHEMERIS_TYPE": 0,
    "CLASSIFICATION_TYPE": "U",
    "NORAD_CAT_ID": 41790,
    "ELEMENT_SET_NO": 999,
    "REV_AT_EPOCH": 45459,
    "BSTAR": 0.00040293,
    "MEAN_MOTION_DOT": 0.00002931,
    "MEAN_MOTION_DDOT": 0
  },
  {
    "OBJECT_NAME": "GOKTURK 1A",
    "OBJECT_ID": "2016-073A",
    "EPOCH": "2025-04-22T05:16:30.165312",
    "MEAN_MOTION": 14.62752108,
    "ECCENTRICITY": 0.0001437,
    "INCLINATION": 98.1189,
    "RA_OF_ASC_NODE": 8.0564,
    "ARG_OF_PERICENTER": 84.2564,
    "MEAN_ANOMALY": 275.8802,
    "EPHEMERIS_TYPE": 0,
    "CLASSIFICATION_TYPE": "U",
    "NORAD_CAT_ID": 41875,
    "ELEMENT_SET_NO": 999,
    "REV_AT_EPOCH": 44728,
    "BSTAR": 0.00018844,
    "MEAN_MOTION_DOT": 0.00000914,
    "MEAN_MOTION_DDOT": 0
  },
  {
    "OBJECT_NAME": "RESOURCESAT-2A",
    "OBJECT_ID": "2016-074A",
    "EPOCH": "2025-04-22T04:27:28.553760",
    "MEAN_MOTION": 14.21680532,
    "ECCENTRICITY": 0.0001863,
    "INCLINATION": 98.6075,
    "RA_OF_ASC_NODE": 184.8338,
    "ARG_OF_PERICENTER": 130.3392,
    "MEAN_ANOMALY": 229.7949,
    "EPHEMERIS_TYPE": 0,
    "CLASSIFICATION_TYPE": "U",
    "NORAD_CAT_ID": 41877,
    "ELEMENT_SET_NO": 999,
    "REV_AT_EPOCH": 43449,
    "BSTAR": 0.00015195,
    "MEAN_MOTION_DOT": 0.00000291,
    "MEAN_MOTION_DDOT": 0
  },
  {
    "OBJECT_NAME": "CARTOSAT-2D",
    "OBJECT_ID": "2017-008A",
    "EPOCH": "2025-04-22T03:45:20.562336",
    "MEAN_MOTION": 15.19330338,
    "ECCENTRICITY": 0.0004505,
    "INCLINATION": 97.466,
    "RA_OF_ASC_NODE": 172.7247,
    "ARG_OF_PERICENTER": 251.2481,
    "MEAN_ANOMALY": 108.8265,
    "EPHEMERIS_TYPE": 0,
    "CLASSIFICATION_TYPE": "U",
    "NORAD_CAT_ID": 41948,
    "ELEMENT_SET_NO": 999,
    "REV_AT_EPOCH": 45365,
    "BSTAR": 0.00043751,
    "MEAN_MOTION_DOT": 0.00009181,
    "MEAN_MOTION_DDOT": 0
  },
  {
    "OBJECT_NAME": "SENTINEL-2B",
    "OBJECT_ID": "2017-013A",
    "EPOCH": "2025-04-22T03:48:20.963808",
    "MEAN_MOTION": 14.30823374,
    "ECCENTRICITY": 0.000131,
    "INCLINATION": 98.5649,
    "RA_OF_ASC_NODE": 187.9842,
    "ARG_OF_PERICENTER": 96.0939,
    "MEAN_ANOMALY": 264.0394,
    "EPHEMERIS_TYPE": 0,
    "CLASSIFICATION_TYPE": "U",
    "NORAD_CAT_ID": 42063,
    "ELEMENT_SET_NO": 999,
    "REV_AT_EPOCH": 42444,
    "BSTAR": 0.00012443,
    "MEAN_MOTION_DOT": 0.00000283,
    "MEAN_MOTION_DDOT": 0
  },
  {
    "OBJECT_NAME": "ZHUHAI-1 02 (CAS-4B)",
    "OBJECT_ID": "2017-034B",
    "EPOCH": "2025-04-21T19:34:50.708352",
    "MEAN_MOTION": 15.56867331,
    "ECCENTRICITY": 0.0019903,
    "INCLINATION": 43.0082,
    "RA_OF_ASC_NODE": 251.1882,
    "ARG_OF_PERICENTER": 308.683,
    "MEAN_ANOMALY": 51.2252,
    "EPHEMERIS_TYPE": 0,
    "CLASSIFICATION_TYPE": "U",
    "NORAD_CAT_ID": 42759,
    "ELEMENT_SET_NO": 999,
    "REV_AT_EPOCH": 43498,
    "BSTAR": 0.0012173,
    "MEAN_MOTION_DOT": 0.00091271,
    "MEAN_MOTION_DDOT": 0
  },
  {
    "OBJECT_NAME": "NUSAT-3 (MILANESAT)",
    "OBJECT_ID": "2017-034C",
    "EPOCH": "2025-04-22T04:28:42.079296",
    "MEAN_MOTION": 15.73334827,
    "ECCENTRICITY": 0.0022857,
    "INCLINATION": 42.9955,
    "RA_OF_ASC_NODE": 216.927,
    "ARG_OF_PERICENTER": 349.849,
    "MEAN_ANOMALY": 10.1915,
    "EPHEMERIS_TYPE": 0,
    "CLASSIFICATION_TYPE": "U",
    "NORAD_CAT_ID": 42760,
    "ELEMENT_SET_NO": 999,
    "REV_AT_EPOCH": 43542,
    "BSTAR": 0.0013087,
    "MEAN_MOTION_DOT": 0.00193505,
    "MEAN_MOTION_DDOT": 0
  }
]